start=new Date('2022-10-20T00:00:00.000Z').valueOf();
sats=[{"SITE":"AFETR","RCS_SIZE":"LARGE","MEAN_ELEMENT_THEORY":"SGP4","RA_OF_ASC_NODE":"122.4825","TLE_LINE1":"1 51715U 22016B   22292.63626143  .00000412  00000-0  43977-4 0  9999","CLASSIFICATION_TYPE":"U","NORAD_CAT_ID":"51715","COUNTRY_CODE":"US","ARG_OF_PERICENTER":"52.1794","BSTAR":"0.00004397700000","GP_ID":"215623166","INCLINATION":"53.2166","REV_AT_EPOCH":"3780","SEMIMAJOR_AXIS":"6917.852","DECAY_DATE":null,"EPOCH":"2022-10-19T15:16:12.987552","ECCENTRICITY":"0.00016110","EPHEMERIS_TYPE":"0","OBJECT_NAME":"STARLINK-3533","MEAN_ANOMALY":"307.9343","APOAPSIS":"540.831","OBJECT_ID":"2022-016B","MEAN_MOTION_DOT":"0.00000412","MEAN_MOTION_DDOT":"0.0000000000000","TLE_LINE2":"2 51715  53.2166 122.4825 0001611  52.1794 307.9343 15.08849436 37800","PERIOD":"95.437","PERIAPSIS":"538.602","LAUNCH_DATE":"2022-02-21","ELEMENT_SET_NO":"999","CENTER_NAME":"EARTH","REF_FRAME":"TEME","OBJECT_TYPE":"PAYLOAD","FILE":"3623738","TIME_SYSTEM":"UTC","MEAN_MOTION":"15.08849436"},{"CENTER_NAME":"EARTH","REF_FRAME":"TEME","OBJECT_TYPE":"PAYLOAD","FILE":"3623738","LAUNCH_DATE":"2022-02-21","ELEMENT_SET_NO":"999","TIME_SYSTEM":"UTC","MEAN_MOTION":"15.08832848","MEAN_MOTION_DOT":"-0.00000341","OBJECT_NAME":"STARLINK-3543","MEAN_ANOMALY":"310.7314","OBJECT_ID":"2022-016C","APOAPSIS":"540.986","TLE_LINE2":"2 51716  53.2165 121.2597 0001762  49.3831 310.7314 15.08832848 36718","PERIAPSIS":"538.548","PERIOD":"95.438","MEAN_MOTION_DDOT":"0.0000000000000","INCLINATION":"53.2165","REV_AT_EPOCH":"3671","SEMIMAJOR_AXIS":"6917.902","DECAY_DATE":null,"EPOCH":"2022-10-19T21:48:22.980384","EPHEMERIS_TYPE":"0","ECCENTRICITY":"0.00017620","RA_OF_ASC_NODE":"121.2597","MEAN_ELEMENT_THEORY":"SGP4","TLE_LINE1":"1 51716U 22016C   22292.90859931 -.00000341  00000-0 -33544-5 0  9996","SITE":"AFETR","RCS_SIZE":"LARGE","BSTAR":"-0.00000335440000","GP_ID":"215622418","CLASSIFICATION_TYPE":"U","NORAD_CAT_ID":"51716","ARG_OF_PERICENTER":"49.3831","COUNTRY_CODE":"US"},{"COUNTRY_CODE":"US","ARG_OF_PERICENTER":"44.8954","CLASSIFICATION_TYPE":"U","NORAD_CAT_ID":"51717","GP_ID":"215622668","BSTAR":"0.00006632700000","RCS_SIZE":"LARGE","SITE":"AFETR","RA_OF_ASC_NODE":"121.2732","MEAN_ELEMENT_THEORY":"SGP4","TLE_LINE1":"1 51717U 22016D   22292.90491119  .00000767  00000-0  66327-4 0  9991","EPHEMERIS_TYPE":"0","ECCENTRICITY":"0.00019780","EPOCH":"2022-10-19T21:43:04.326816","INCLINATION":"53.2151","DECAY_DATE":null,"SEMIMAJOR_AXIS":"6917.901","REV_AT_EPOCH":"3671","MEAN_MOTION_DDOT":"0.0000000000000","TLE_LINE2":"2 51717  53.2151 121.2732 0001978  44.8954 315.2198 15.08833278 36718","PERIAPSIS":"538.398","PERIOD":"95.438","MEAN_ANOMALY":"315.2198","OBJECT_NAME":"STARLINK-3445","OBJECT_ID":"2022-016D","APOAPSIS":"541.134","MEAN_MOTION_DOT":"0.00000767","TIME_SYSTEM":"UTC","MEAN_MOTION":"15.08833278","LAUNCH_DATE":"2022-02-21","ELEMENT_SET_NO":"999","CENTER_NAME":"EARTH","FILE":"3623738","REF_FRAME":"TEME","OBJECT_TYPE":"PAYLOAD"},{"INCLINATION":"53.2157","SEMIMAJOR_AXIS":"6917.852","DECAY_DATE":null,"REV_AT_EPOCH":"3779","EPHEMERIS_TYPE":"0","ECCENTRICITY":"0.00019270","EPOCH":"2022-10-19T15:00:18.429984","RCS_SIZE":"LARGE","SITE":"AFETR","MEAN_ELEMENT_THEORY":"SGP4","RA_OF_ASC_NODE":"122.5071","TLE_LINE1":"1 51718U 22016E   22292.62521331 -.00001786  00000-0 -94081-4 0  9993","COUNTRY_CODE":"US","ARG_OF_PERICENTER":"45.6234","CLASSIFICATION_TYPE":"U","NORAD_CAT_ID":"51718","BSTAR":"-0.00009408100000","GP_ID":"215622920","LAUNCH_DATE":"2022-02-21","ELEMENT_SET_NO":"999","CENTER_NAME":"EARTH","FILE":"3623738","OBJECT_TYPE":"PAYLOAD","REF_FRAME":"TEME","TIME_SYSTEM":"UTC","MEAN_MOTION":"15.08849221","MEAN_ANOMALY":"314.4916","OBJECT_NAME":"STARLINK-3546","OBJECT_ID":"2022-016E","APOAPSIS":"541.050","MEAN_MOTION_DOT":"-0.00001786","MEAN_MOTION_DDOT":"0.0000000000000","TLE_LINE2":"2 51718  53.2157 122.5071 0001927  45.6234 314.4916 15.08849221 37792","PERIOD":"95.437","PERIAPSIS":"538.384"},{"INCLINATION":"53.2164","SEMIMAJOR_AXIS":"6917.864","DECAY_DATE":null,"REV_AT_EPOCH":"3667","EPHEMERIS_TYPE":"0","ECCENTRICITY":"0.00016430","EPOCH":"2022-10-19T15:10:54.839424","RCS_SIZE":"LARGE","SITE":"AFETR","MEAN_ELEMENT_THEORY":"SGP4","RA_OF_ASC_NODE":"122.4958","TLE_LINE1":"1 51719U 22016F   22292.63257916  .00000147  00000-0  27347-4 0  9999","COUNTRY_CODE":"US","ARG_OF_PERICENTER":"56.0612","CLASSIFICATION_TYPE":"U","NORAD_CAT_ID":"51719","BSTAR":"0.00002734700000","GP_ID":"215623666","LAUNCH_DATE":"2022-02-21","ELEMENT_SET_NO":"999","CENTER_NAME":"EARTH","FILE":"3623738","REF_FRAME":"TEME","OBJECT_TYPE":"PAYLOAD","TIME_SYSTEM":"UTC","MEAN_MOTION":"15.08845316","MEAN_ANOMALY":"304.0536","OBJECT_NAME":"STARLINK-3540","OBJECT_ID":"2022-016F","APOAPSIS":"540.866","MEAN_MOTION_DOT":"0.00000147","MEAN_MOTION_DDOT":"0.0000000000000","TLE_LINE2":"2 51719  53.2164 122.4958 0001643  56.0612 304.0536 15.08845316 36675","PERIAPSIS":"538.593","PERIOD":"95.437"},{"MEAN_MOTION":"15.08845794","TIME_SYSTEM":"UTC","ELEMENT_SET_NO":"999","LAUNCH_DATE":"2022-02-21","FILE":"3623062","OBJECT_TYPE":"PAYLOAD","REF_FRAME":"TEME","CENTER_NAME":"EARTH","MEAN_MOTION_DDOT":"0.0000000000000","PERIOD":"95.437","PERIAPSIS":"538.344","TLE_LINE2":"2 51720  53.2153 122.8209 0002000  53.9632 306.1545 15.08845794 36655","APOAPSIS":"541.111","OBJECT_ID":"2022-016G","MEAN_ANOMALY":"306.1545","OBJECT_NAME":"STARLINK-3526","MEAN_MOTION_DOT":"0.00000330","EPHEMERIS_TYPE":"0","ECCENTRICITY":"0.00020000","EPOCH":"2022-10-19T13:19:38.245728","DECAY_DATE":null,"SEMIMAJOR_AXIS":"6917.863","REV_AT_EPOCH":"3665","INCLINATION":"53.2153","COUNTRY_CODE":"US","ARG_OF_PERICENTER":"53.9632","CLASSIFICATION_TYPE":"U","NORAD_CAT_ID":"51720","BSTAR":"0.00003881900000","GP_ID":"215582387","RCS_SIZE":"LARGE","SITE":"AFETR","TLE_LINE1":"1 51720U 22016G   22292.55530377  .00000330  00000-0  38819-4 0  9997","MEAN_ELEMENT_THEORY":"SGP4","RA_OF_ASC_NODE":"122.8209"},{"EPOCH":"2022-10-19T15:05:36.997152","ECCENTRICITY":"0.00016780","EPHEMERIS_TYPE":"0","REV_AT_EPOCH":"3667","DECAY_DATE":null,"SEMIMAJOR_AXIS":"6917.888","INCLINATION":"53.2155","GP_ID":"215622169","BSTAR":"0.00002103600000","NORAD_CAT_ID":"51721","CLASSIFICATION_TYPE":"U","COUNTRY_CODE":"US","ARG_OF_PERICENTER":"49.8726","TLE_LINE1":"1 51721U 22016H   22292.62890043  .00000047  00000-0  21036-4 0  9993","RA_OF_ASC_NODE":"122.5081","MEAN_ELEMENT_THEORY":"SGP4","SITE":"AFETR","RCS_SIZE":"LARGE","MEAN_MOTION":"15.08837442","TIME_SYSTEM":"UTC","OBJECT_TYPE":"PAYLOAD","REF_FRAME":"TEME","FILE":"3623738","CENTER_NAME":"EARTH","ELEMENT_SET_NO":"999","LAUNCH_DATE":"2022-02-21","PERIAPSIS":"538.592","PERIOD":"95.438","TLE_LINE2":"2 51721  53.2155 122.5081 0001678  49.8726 310.2413 15.08837442 36674","MEAN_MOTION_DDOT":"0.0000000000000","MEAN_MOTION_DOT":"0.00000047","OBJECT_ID":"2022-016H","APOAPSIS":"540.914","OBJECT_NAME":"STARLINK-3524","MEAN_ANOMALY":"310.2413"},{"TLE_LINE2":"2 51722  53.2169 121.6714 0001798  48.0200 312.0945 15.08843337 36696","PERIOD":"95.437","PERIAPSIS":"538.491","MEAN_MOTION_DDOT":"0.0000000000000","MEAN_MOTION_DOT":"-0.00002054","OBJECT_NAME":"STARLINK-3535","MEAN_ANOMALY":"312.0945","APOAPSIS":"540.979","OBJECT_ID":"2022-016J","TIME_SYSTEM":"UTC","MEAN_MOTION":"15.08843337","CENTER_NAME":"EARTH","REF_FRAME":"TEME","OBJECT_TYPE":"PAYLOAD","FILE":"3623738","LAUNCH_DATE":"2022-02-21","ELEMENT_SET_NO":"999","BSTAR":"-0.00011096000000","GP_ID":"215623420","NORAD_CAT_ID":"51722","CLASSIFICATION_TYPE":"U","ARG_OF_PERICENTER":"48.0200","COUNTRY_CODE":"US","RA_OF_ASC_NODE":"121.6714","MEAN_ELEMENT_THEORY":"SGP4","TLE_LINE1":"1 51722U 22016J   22292.81290236 -.00002054  00000-0 -11096-3 0  9999","SITE":"AFETR","RCS_SIZE":"LARGE","EPOCH":"2022-10-19T19:30:34.763904","ECCENTRICITY":"0.00017980","EPHEMERIS_TYPE":"0","INCLINATION":"53.2169","REV_AT_EPOCH":"3669","DECAY_DATE":null,"SEMIMAJOR_AXIS":"6917.870"},{"TLE_LINE2":"2 51723  53.2152  27.1793 0008078 285.8874  74.1257 15.76730312 37991","PERIAPSIS":"334.287","PERIOD":"91.328","MEAN_MOTION_DDOT":"0.0000000000000","MEAN_MOTION_DOT":"0.00010634","MEAN_ANOMALY":"74.1257","OBJECT_NAME":"STARLINK-3531","OBJECT_ID":"2022-016K","APOAPSIS":"345.141","TIME_SYSTEM":"UTC","MEAN_MOTION":"15.76730312","CENTER_NAME":"EARTH","FILE":"3623062","REF_FRAME":"TEME","OBJECT_TYPE":"PAYLOAD","LAUNCH_DATE":"2022-02-21","ELEMENT_SET_NO":"999","BSTAR":"0.00006882100000","GP_ID":"215582636","ARG_OF_PERICENTER":"285.8874","COUNTRY_CODE":"US","NORAD_CAT_ID":"51723","CLASSIFICATION_TYPE":"U","RA_OF_ASC_NODE":"27.1793","MEAN_ELEMENT_THEORY":"SGP4","TLE_LINE1":"1 51723U 22016K   22292.50177512  .00010634  00000-0  68821-4 0  9997","RCS_SIZE":"LARGE","SITE":"AFETR","EPHEMERIS_TYPE":"0","ECCENTRICITY":"0.00080780","EPOCH":"2022-10-19T12:02:33.370368","INCLINATION":"53.2152","SEMIMAJOR_AXIS":"6717.849","DECAY_DATE":null,"REV_AT_EPOCH":"3799"},{"MEAN_MOTION_DDOT":"0.0000000000000","PERIOD":"95.438","PERIAPSIS":"538.395","TLE_LINE2":"2 51724  53.2175 122.8974 0002005  50.6100 309.5070 15.08827847 36650","OBJECT_ID":"2022-016L","APOAPSIS":"541.170","OBJECT_NAME":"STARLINK-3529","MEAN_ANOMALY":"309.5070","MEAN_MOTION_DOT":"0.00001934","MEAN_MOTION":"15.08827847","TIME_SYSTEM":"UTC","ELEMENT_SET_NO":"999","LAUNCH_DATE":"2022-02-21","REF_FRAME":"TEME","OBJECT_TYPE":"PAYLOAD","FILE":"3623062","CENTER_NAME":"EARTH","CLASSIFICATION_TYPE":"U","NORAD_CAT_ID":"51724","COUNTRY_CODE":"US","ARG_OF_PERICENTER":"50.6100","BSTAR":"0.00013963000000","GP_ID":"215582887","SITE":"AFETR","RCS_SIZE":"LARGE","TLE_LINE1":"1 51724U 22016L   22292.54058826  .00001934  00000-0  13963-3 0  9997","RA_OF_ASC_NODE":"122.8974","MEAN_ELEMENT_THEORY":"SGP4","EPOCH":"2022-10-19T12:58:26.825664","EPHEMERIS_TYPE":"0","ECCENTRICITY":"0.00020050","REV_AT_EPOCH":"3665","DECAY_DATE":null,"SEMIMAJOR_AXIS":"6917.918","INCLINATION":"53.2175"}];
